HXMT (HUIYAN)           
1 42758U 17034A   26080.95417453  .00006962  00000+0  34671-3 0  9991
2 42758  43.0145 308.4809 0032780 310.6502  49.1498 15.17618309484400
SAOCOM 1A               
1 43641U 18076A   26080.91241988  .00000163  00000+0  27096-4 0  9995
2 43641  97.8892 268.9127 0001474  84.7958 275.3423 14.82152349403175
H-2A R/B                
1 43682U 18084L   26080.54609837  .00027516  00000+0  64353-3 0  9996
2 43682  98.8711 300.4726 0024402 344.4646  15.5844 15.41824559407602
SAOCOM 1B               
1 46265U 20059A   26080.94363771  .00000965  00000+0  12782-3 0  9997
2 46265  97.8891 268.0412 0001506  88.1384 272.0002 14.82149767300560
CSS (TIANHE)            
1 48274U 21035A   26080.87147154  .00028184  00000+0  32507-3 0  9991
2 48274  41.4660 134.0045 0005312 350.4571   9.6167 15.61285999279519
COSMOS 2550             
1 48865U 21056A   26079.66782365 -.00000188  00000+0  12592-6 0  9994
2 48865  67.1449   7.6743 0008199 268.9235  91.0980 15.33831857265142
CZ-2C R/B               
1 52794U 22058K   26080.78868032  .00044319  00000+0  62500-3 0  9998
2 52794  50.1874 256.0095 0041756 252.5435 107.0969 15.55073970212010
CZ-2C R/B               
1 54039U 22132E   26080.54063292  .00062311  00000+0  68095-3 0  9991
2 54039  97.2959  84.2267 0019220  53.5063 306.7963 15.62906527192222
GSLV R/B                
1 54149U 22138AN  26080.95504779  .00003735  00000+0  32165-3 0  9998
2 54149  87.3867 162.2567 0024026 105.8666 254.5216 14.96852016185763
XRISM                   
1 57800U 23137A   26080.79089096  .00006629  00000+0  37472-3 0  9998
2 57800  31.0012 205.3819 0007978 160.8711 199.2228 15.11629018139620
ACS3                    
1 59588U 24077B   26080.80820682  .00030616  00000+0  24218-1 0  9998
2 59588  97.2006  19.1971 0069447  48.2458 312.4615 13.90163363 95887
SZ-21 MODULE            
1 66515U 25246C   26080.84864069  .00044117  00000+0  36505-3 0  9991
2 66515  41.4733 128.4589 0000505 233.4003 126.6793 15.69453239 19987
