[{"OBJECT_NAME":"HXMT (HUIYAN)","OBJECT_ID":"2017-034A","EPOCH":"2026-03-21T22:54:00.679392","MEAN_MOTION":15.17618309,"ECCENTRICITY":0.00327803,"INCLINATION":43.0145,"RA_OF_ASC_NODE":308.4809,"ARG_OF_PERICENTER":310.6502,"MEAN_ANOMALY":49.1498,"EPHEMERIS_TYPE":0,"CLASSIFICATION_TYPE":"U","NORAD_CAT_ID":42758,"ELEMENT_SET_NO":999,"REV_AT_EPOCH":48440,"BSTAR":0.00034671401,"MEAN_MOTION_DOT":6.962e-5,"MEAN_MOTION_DDOT":0},{"OBJECT_NAME":"SAOCOM 1A","OBJECT_ID":"2018-076A","EPOCH":"2026-03-21T21:53:53.077632","MEAN_MOTION":14.82152349,"ECCENTRICITY":0.00014744,"INCLINATION":97.8892,"RA_OF_ASC_NODE":268.9127,"ARG_OF_PERICENTER":84.7958,"MEAN_ANOMALY":275.3423,"EPHEMERIS_TYPE":0,"CLASSIFICATION_TYPE":"U","NORAD_CAT_ID":43641,"ELEMENT_SET_NO":999,"REV_AT_EPOCH":40317,"BSTAR":2.7096236e-5,"MEAN_MOTION_DOT":1.63e-6,"MEAN_MOTION_DDOT":0},{"OBJECT_NAME":"H-2A R/B","OBJECT_ID":"2018-084L","EPOCH":"2026-03-21T13:06:22.899168","MEAN_MOTION":15.41824559,"ECCENTRICITY":0.00244026,"INCLINATION":98.8711,"RA_OF_ASC_NODE":300.4726,"ARG_OF_PERICENTER":344.4646,"MEAN_ANOMALY":15.5844,"EPHEMERIS_TYPE":0,"CLASSIFICATION_TYPE":"U","NORAD_CAT_ID":43682,"ELEMENT_SET_NO":999,"REV_AT_EPOCH":40760,"BSTAR":0.00064353301,"MEAN_MOTION_DOT":0.00027516,"MEAN_MOTION_DDOT":0},{"OBJECT_NAME":"SAOCOM 1B","OBJECT_ID":"2020-059A","EPOCH":"2026-03-21T22:38:50.298144","MEAN_MOTION":14.82149767,"ECCENTRICITY":0.00015062,"INCLINATION":97.8891,"RA_OF_ASC_NODE":268.0412,"ARG_OF_PERICENTER":88.1384,"MEAN_ANOMALY":272.0002,"EPHEMERIS_TYPE":0,"CLASSIFICATION_TYPE":"U","NORAD_CAT_ID":46265,"ELEMENT_SET_NO":999,"REV_AT_EPOCH":30056,"BSTAR":0.00012781835,"MEAN_MOTION_DOT":9.65e-6,"MEAN_MOTION_DDOT":0},{"OBJECT_NAME":"CSS (TIANHE)","OBJECT_ID":"2021-035A","EPOCH":"2026-03-21T20:54:55.141056","MEAN_MOTION":15.61285999,"ECCENTRICITY":0.00053122,"INCLINATION":41.466,"RA_OF_ASC_NODE":134.0045,"ARG_OF_PERICENTER":350.4571,"MEAN_ANOMALY":9.6167,"EPHEMERIS_TYPE":0,"CLASSIFICATION_TYPE":"U","NORAD_CAT_ID":48274,"ELEMENT_SET_NO":999,"REV_AT_EPOCH":27951,"BSTAR":0.00032507415,"MEAN_MOTION_DOT":0.00028184,"MEAN_MOTION_DDOT":0},{"OBJECT_NAME":"COSMOS 2550","OBJECT_ID":"2021-056A","EPOCH":"2026-03-20T16:01:39.963360","MEAN_MOTION":15.33831857,"ECCENTRICITY":0.00081995,"INCLINATION":67.1449,"RA_OF_ASC_NODE":7.6743,"ARG_OF_PERICENTER":268.9235,"MEAN_ANOMALY":91.098,"EPHEMERIS_TYPE":0,"CLASSIFICATION_TYPE":"U","NORAD_CAT_ID":48865,"ELEMENT_SET_NO":999,"REV_AT_EPOCH":26514,"BSTAR":1.25924e-7,"MEAN_MOTION_DOT":-1.88e-6,"MEAN_MOTION_DDOT":0},{"OBJECT_NAME":"CZ-2C R/B","OBJECT_ID":"2022-058K","EPOCH":"2026-03-21T18:55:41.979648","MEAN_MOTION":15.5507397,"ECCENTRICITY":0.0041756,"INCLINATION":50.1874,"RA_OF_ASC_NODE":256.0095,"ARG_OF_PERICENTER":252.5435,"MEAN_ANOMALY":107.0969,"EPHEMERIS_TYPE":0,"CLASSIFICATION_TYPE":"U","NORAD_CAT_ID":52794,"ELEMENT_SET_NO":999,"REV_AT_EPOCH":21201,"BSTAR":0.00062500431,"MEAN_MOTION_DOT":0.00044319,"MEAN_MOTION_DDOT":0},{"OBJECT_NAME":"CZ-2C R/B","OBJECT_ID":"2022-132E","EPOCH":"2026-03-21T12:58:30.684288","MEAN_MOTION":15.62906527,"ECCENTRICITY":0.001922,"INCLINATION":97.2959,"RA_OF_ASC_NODE":84.2267,"ARG_OF_PERICENTER":53.5063,"MEAN_ANOMALY":306.7963,"EPHEMERIS_TYPE":0,"CLASSIFICATION_TYPE":"U","NORAD_CAT_ID":54039,"ELEMENT_SET_NO":999,"REV_AT_EPOCH":19222,"BSTAR":0.00068094667,"MEAN_MOTION_DOT":0.00062311,"MEAN_MOTION_DDOT":0},{"OBJECT_NAME":"GSLV R/B","OBJECT_ID":"2022-138AN","EPOCH":"2026-03-21T22:55:16.129056","MEAN_MOTION":14.96852016,"ECCENTRICITY":0.0024026,"INCLINATION":87.3867,"RA_OF_ASC_NODE":162.2567,"ARG_OF_PERICENTER":105.8666,"MEAN_ANOMALY":254.5216,"EPHEMERIS_TYPE":0,"CLASSIFICATION_TYPE":"U","NORAD_CAT_ID":54149,"ELEMENT_SET_NO":999,"REV_AT_EPOCH":18576,"BSTAR":0.00032164774,"MEAN_MOTION_DOT":3.735e-5,"MEAN_MOTION_DDOT":0},{"OBJECT_NAME":"XRISM","OBJECT_ID":"2023-137A","EPOCH":"2026-03-21T18:58:52.978944","MEAN_MOTION":15.11629018,"ECCENTRICITY":0.00079782,"INCLINATION":31.0012,"RA_OF_ASC_NODE":205.3819,"ARG_OF_PERICENTER":160.8711,"MEAN_ANOMALY":199.2228,"EPHEMERIS_TYPE":0,"CLASSIFICATION_TYPE":"U","NORAD_CAT_ID":57800,"ELEMENT_SET_NO":999,"REV_AT_EPOCH":13962,"BSTAR":0.00037471928,"MEAN_MOTION_DOT":6.629e-5,"MEAN_MOTION_DDOT":0},{"OBJECT_NAME":"ACS3","OBJECT_ID":"2024-077B","EPOCH":"2026-03-21T19:23:49.069248","MEAN_MOTION":13.90163363,"ECCENTRICITY":0.0069447,"INCLINATION":97.2006,"RA_OF_ASC_NODE":19.1971,"ARG_OF_PERICENTER":48.2458,"MEAN_ANOMALY":312.4615,"EPHEMERIS_TYPE":0,"CLASSIFICATION_TYPE":"U","NORAD_CAT_ID":59588,"ELEMENT_SET_NO":999,"REV_AT_EPOCH":9588,"BSTAR":0.024218181,"MEAN_MOTION_DOT":0.00030616,"MEAN_MOTION_DDOT":0},{"OBJECT_NAME":"SZ-21 MODULE","OBJECT_ID":"2025-246C","EPOCH":"2026-03-21T20:22:02.555616","MEAN_MOTION":15.69453239,"ECCENTRICITY":5.056e-5,"INCLINATION":41.4733,"RA_OF_ASC_NODE":128.4589,"ARG_OF_PERICENTER":233.4003,"MEAN_ANOMALY":126.6793,"EPHEMERIS_TYPE":0,"CLASSIFICATION_TYPE":"U","NORAD_CAT_ID":66515,"ELEMENT_SET_NO":999,"REV_AT_EPOCH":1998,"BSTAR":0.00036504589,"MEAN_MOTION_DOT":0.00044117,"MEAN_MOTION_DDOT":0}]
